ONEWEB-0255             
1 48973U 21060G   25326.33245243  .00000036  00000+0  60531-4 0  9991
2 48973  87.9021 269.9775 0002119  77.6177 282.5191 13.16593306212441
ONEWEB-0256             
1 48974U 21060H   25326.35857382  .00000126  00000+0  29591-3 0  9997
2 48974  87.9012 269.9818 0001793  81.2791 278.8543 13.16593206212415
ONEWEB-0257             
1 48975U 21060J   25326.39103211  .00000077  00000+0  16809-3 0  9990
2 48975  87.9027 269.9517 0002077  80.5690 279.5676 13.16592615212377
ONEWEB-0258             
1 48976U 21060K   25326.39261729  .00000070  00000+0  14834-3 0  9999
2 48976  87.9022 269.9672 0001892  73.2737 286.8602 13.16593265212383
ONEWEB-0259             
1 48977U 21060L   25326.38628150  .00000124  00000+0  29141-3 0  9991
2 48977  87.9029 269.9615 0002051  77.4953 282.6407 13.16593010212411
ONEWEB-0260             
1 48978U 21060M   25326.37757052  .00000187  00000+0  45426-3 0  9998
2 48978  87.9016 269.9794 0001765  91.5439 268.5894 13.16592336212393
ONEWEB-0261             
1 48979U 21060N   25326.34749819 -.00000031  00000+0 -11506-3 0  9990
2 48979  87.9012 269.9875 0002303  81.6461 278.4931 13.16596552212446
ONEWEB-0262             
1 48980U 21060P   25326.40369917  .00000067  00000+0  14177-3 0  9990
2 48980  87.9029 269.9472 0002111  71.4075 288.7285 13.16593330212418
ONEWEB-0263             
1 48981U 21060Q   25326.35937036  .00000202  00000+0  49464-3 0  9996
2 48981  87.9018 269.9719 0002309  80.7647 279.3745 13.16593584212371
ONEWEB-0264             
1 48982U 21060R   25326.39658455  .00000062  00000+0  12792-3 0  9994
2 48982  87.9018 269.9685 0002004  84.9918 275.1442 13.16595782212384
ONEWEB-0266             
1 48984U 21060T   25326.34195645 -.00000015  00000+0 -73903-4 0  9990
2 48984  87.9024 269.9639 0001898  72.4222 287.7116 13.16594058212362
ONEWEB-0267             
1 48985U 21060U   25326.35304481  .00000084  00000+0  18586-3 0  9991
2 48985  87.9020 269.9612 0002111  82.6680 277.4691 13.16595008212371
ONEWEB-0268             
1 48986U 21060V   25326.39737116  .00000084  00000+0  18548-3 0  9999
2 48986  87.9027 269.9601 0001894  80.2577 279.8768 13.16593536212648
ONEWEB-0269             
1 48987U 21060W   25326.37837694  .00000152  00000+0  36436-3 0  9992
2 48987  87.9016 269.9881 0001683  81.8679 278.2642 13.16594230212414
ONEWEB-0270             
1 48988U 21060X   25326.39579427  .00000117  00000+0  27206-3 0  9998
2 48988  87.9028 269.9621 0002323  75.4153 284.7235 13.16594272212458
ONEWEB-0271             
1 48989U 21060Y   25326.38312182  .00000097  00000+0  21916-3 0  9990
2 48989  87.9036 269.9525 0002111  81.2401 278.8969 13.16593160212450
ONEWEB-0272             
1 48990U 21060Z   25326.40528205  .00000046  00000+0  85409-4 0  9992
2 48990  87.9018 269.9665 0002058  84.6664 275.4702 13.16593358212407
