[{"OBJECT_NAME":"ONEWEB-0255","OBJECT_ID":"2021-060G","EPOCH":"2025-11-22T07:58:43.889952","MEAN_MOTION":13.16593306,"ECCENTRICITY":0.0002119,"INCLINATION":87.9021,"RA_OF_ASC_NODE":269.9775,"ARG_OF_PERICENTER":77.6177,"MEAN_ANOMALY":282.5191,"EPHEMERIS_TYPE":0,"CLASSIFICATION_TYPE":"U","NORAD_CAT_ID":48973,"ELEMENT_SET_NO":999,"REV_AT_EPOCH":21244,"BSTAR":6.0531e-5,"MEAN_MOTION_DOT":3.6e-7,"MEAN_MOTION_DDOT":0},{"OBJECT_NAME":"ONEWEB-0256","OBJECT_ID":"2021-060H","EPOCH":"2025-11-22T08:36:20.778048","MEAN_MOTION":13.16593206,"ECCENTRICITY":0.0001793,"INCLINATION":87.9012,"RA_OF_ASC_NODE":269.9818,"ARG_OF_PERICENTER":81.2791,"MEAN_ANOMALY":278.8543,"EPHEMERIS_TYPE":0,"CLASSIFICATION_TYPE":"U","NORAD_CAT_ID":48974,"ELEMENT_SET_NO":999,"REV_AT_EPOCH":21241,"BSTAR":0.00029591,"MEAN_MOTION_DOT":1.26e-6,"MEAN_MOTION_DDOT":0},{"OBJECT_NAME":"ONEWEB-0257","OBJECT_ID":"2021-060J","EPOCH":"2025-11-22T09:23:05.174304","MEAN_MOTION":13.16592615,"ECCENTRICITY":0.0002077,"INCLINATION":87.9027,"RA_OF_ASC_NODE":269.9517,"ARG_OF_PERICENTER":80.569,"MEAN_ANOMALY":279.5676,"EPHEMERIS_TYPE":0,"CLASSIFICATION_TYPE":"U","NORAD_CAT_ID":48975,"ELEMENT_SET_NO":999,"REV_AT_EPOCH":21237,"BSTAR":0.00016809,"MEAN_MOTION_DOT":7.7e-7,"MEAN_MOTION_DDOT":0},{"OBJECT_NAME":"ONEWEB-0258","OBJECT_ID":"2021-060K","EPOCH":"2025-11-22T09:25:22.133856","MEAN_MOTION":13.16593265,"ECCENTRICITY":0.0001892,"INCLINATION":87.9022,"RA_OF_ASC_NODE":269.9672,"ARG_OF_PERICENTER":73.2737,"MEAN_ANOMALY":286.8602,"EPHEMERIS_TYPE":0,"CLASSIFICATION_TYPE":"U","NORAD_CAT_ID":48976,"ELEMENT_SET_NO":999,"REV_AT_EPOCH":21238,"BSTAR":0.00014834,"MEAN_MOTION_DOT":7.0e-7,"MEAN_MOTION_DDOT":0},{"OBJECT_NAME":"ONEWEB-0259","OBJECT_ID":"2021-060L","EPOCH":"2025-11-22T09:16:14.721600","MEAN_MOTION":13.1659301,"ECCENTRICITY":0.0002051,"INCLINATION":87.9029,"RA_OF_ASC_NODE":269.9615,"ARG_OF_PERICENTER":77.4953,"MEAN_ANOMALY":282.6407,"EPHEMERIS_TYPE":0,"CLASSIFICATION_TYPE":"U","NORAD_CAT_ID":48977,"ELEMENT_SET_NO":999,"REV_AT_EPOCH":21241,"BSTAR":0.00029141,"MEAN_MOTION_DOT":1.24e-6,"MEAN_MOTION_DDOT":0},{"OBJECT_NAME":"ONEWEB-0260","OBJECT_ID":"2021-060M","EPOCH":"2025-11-22T09:03:42.092928","MEAN_MOTION":13.16592336,"ECCENTRICITY":0.0001765,"INCLINATION":87.9016,"RA_OF_ASC_NODE":269.9794,"ARG_OF_PERICENTER":91.5439,"MEAN_ANOMALY":268.5894,"EPHEMERIS_TYPE":0,"CLASSIFICATION_TYPE":"U","NORAD_CAT_ID":48978,"ELEMENT_SET_NO":999,"REV_AT_EPOCH":21239,"BSTAR":0.00045426,"MEAN_MOTION_DOT":1.87e-6,"MEAN_MOTION_DDOT":0},{"OBJECT_NAME":"ONEWEB-0261","OBJECT_ID":"2021-060N","EPOCH":"2025-11-22T08:20:23.843616","MEAN_MOTION":13.16596552,"ECCENTRICITY":0.0002303,"INCLINATION":87.9012,"RA_OF_ASC_NODE":269.9875,"ARG_OF_PERICENTER":81.6461,"MEAN_ANOMALY":278.4931,"EPHEMERIS_TYPE":0,"CLASSIFICATION_TYPE":"U","NORAD_CAT_ID":48979,"ELEMENT_SET_NO":999,"REV_AT_EPOCH":21244,"BSTAR":-0.00011506,"MEAN_MOTION_DOT":-3.1e-7,"MEAN_MOTION_DDOT":0},{"OBJECT_NAME":"ONEWEB-0262","OBJECT_ID":"2021-060P","EPOCH":"2025-11-22T09:41:19.608288","MEAN_MOTION":13.1659333,"ECCENTRICITY":0.0002111,"INCLINATION":87.9029,"RA_OF_ASC_NODE":269.9472,"ARG_OF_PERICENTER":71.4075,"MEAN_ANOMALY":288.7285,"EPHEMERIS_TYPE":0,"CLASSIFICATION_TYPE":"U","NORAD_CAT_ID":48980,"ELEMENT_SET_NO":999,"REV_AT_EPOCH":21241,"BSTAR":0.00014177,"MEAN_MOTION_DOT":6.7e-7,"MEAN_MOTION_DDOT":0},{"OBJECT_NAME":"ONEWEB-0263","OBJECT_ID":"2021-060Q","EPOCH":"2025-11-22T08:37:29.599104","MEAN_MOTION":13.16593584,"ECCENTRICITY":0.0002309,"INCLINATION":87.9018,"RA_OF_ASC_NODE":269.9719,"ARG_OF_PERICENTER":80.7647,"MEAN_ANOMALY":279.3745,"EPHEMERIS_TYPE":0,"CLASSIFICATION_TYPE":"U","NORAD_CAT_ID":48981,"ELEMENT_SET_NO":999,"REV_AT_EPOCH":21237,"BSTAR":0.00049464,"MEAN_MOTION_DOT":2.02e-6,"MEAN_MOTION_DDOT":0},{"OBJECT_NAME":"ONEWEB-0264","OBJECT_ID":"2021-060R","EPOCH":"2025-11-22T09:31:04.905120","MEAN_MOTION":13.16595782,"ECCENTRICITY":0.0002004,"INCLINATION":87.9018,"RA_OF_ASC_NODE":269.9685,"ARG_OF_PERICENTER":84.9918,"MEAN_ANOMALY":275.1442,"EPHEMERIS_TYPE":0,"CLASSIFICATION_TYPE":"U","NORAD_CAT_ID":48982,"ELEMENT_SET_NO":999,"REV_AT_EPOCH":21238,"BSTAR":0.00012792,"MEAN_MOTION_DOT":6.2e-7,"MEAN_MOTION_DDOT":0},{"OBJECT_NAME":"ONEWEB-0266","OBJECT_ID":"2021-060T","EPOCH":"2025-11-22T08:12:25.037280","MEAN_MOTION":13.16594058,"ECCENTRICITY":0.0001898,"INCLINATION":87.9024,"RA_OF_ASC_NODE":269.9639,"ARG_OF_PERICENTER":72.4222,"MEAN_ANOMALY":287.7116,"EPHEMERIS_TYPE":0,"CLASSIFICATION_TYPE":"U","NORAD_CAT_ID":48984,"ELEMENT_SET_NO":999,"REV_AT_EPOCH":21236,"BSTAR":-7.3903e-5,"MEAN_MOTION_DOT":-1.5e-7,"MEAN_MOTION_DDOT":0},{"OBJECT_NAME":"ONEWEB-0267","OBJECT_ID":"2021-060U","EPOCH":"2025-11-22T08:28:23.071584","MEAN_MOTION":13.16595008,"ECCENTRICITY":0.0002111,"INCLINATION":87.902,"RA_OF_ASC_NODE":269.9612,"ARG_OF_PERICENTER":82.668,"MEAN_ANOMALY":277.4691,"EPHEMERIS_TYPE":0,"CLASSIFICATION_TYPE":"U","NORAD_CAT_ID":48985,"ELEMENT_SET_NO":999,"REV_AT_EPOCH":21237,"BSTAR":0.00018586,"MEAN_MOTION_DOT":8.4e-7,"MEAN_MOTION_DDOT":0},{"OBJECT_NAME":"ONEWEB-0268","OBJECT_ID":"2021-060V","EPOCH":"2025-11-22T09:32:12.868224","MEAN_MOTION":13.16593536,"ECCENTRICITY":0.0001894,"INCLINATION":87.9027,"RA_OF_ASC_NODE":269.9601,"ARG_OF_PERICENTER":80.2577,"MEAN_ANOMALY":279.8768,"EPHEMERIS_TYPE":0,"CLASSIFICATION_TYPE":"U","NORAD_CAT_ID":48986,"ELEMENT_SET_NO":999,"REV_AT_EPOCH":21264,"BSTAR":0.00018548,"MEAN_MOTION_DOT":8.4e-7,"MEAN_MOTION_DDOT":0},{"OBJECT_NAME":"ONEWEB-0269","OBJECT_ID":"2021-060W","EPOCH":"2025-11-22T09:04:51.767616","MEAN_MOTION":13.1659423,"ECCENTRICITY":0.0001683,"INCLINATION":87.9016,"RA_OF_ASC_NODE":269.9881,"ARG_OF_PERICENTER":81.8679,"MEAN_ANOMALY":278.2642,"EPHEMERIS_TYPE":0,"CLASSIFICATION_TYPE":"U","NORAD_CAT_ID":48987,"ELEMENT_SET_NO":999,"REV_AT_EPOCH":21241,"BSTAR":0.00036436,"MEAN_MOTION_DOT":1.52e-6,"MEAN_MOTION_DDOT":0},{"OBJECT_NAME":"ONEWEB-0270","OBJECT_ID":"2021-060X","EPOCH":"2025-11-22T09:29:56.624928","MEAN_MOTION":13.16594272,"ECCENTRICITY":0.0002323,"INCLINATION":87.9028,"RA_OF_ASC_NODE":269.9621,"ARG_OF_PERICENTER":75.4153,"MEAN_ANOMALY":284.7235,"EPHEMERIS_TYPE":0,"CLASSIFICATION_TYPE":"U","NORAD_CAT_ID":48988,"ELEMENT_SET_NO":999,"REV_AT_EPOCH":21245,"BSTAR":0.00027206,"MEAN_MOTION_DOT":1.17e-6,"MEAN_MOTION_DDOT":0},{"OBJECT_NAME":"ONEWEB-0271","OBJECT_ID":"2021-060Y","EPOCH":"2025-11-22T09:11:41.725248","MEAN_MOTION":13.1659316,"ECCENTRICITY":0.0002111,"INCLINATION":87.9036,"RA_OF_ASC_NODE":269.9525,"ARG_OF_PERICENTER":81.2401,"MEAN_ANOMALY":278.8969,"EPHEMERIS_TYPE":0,"CLASSIFICATION_TYPE":"U","NORAD_CAT_ID":48989,"ELEMENT_SET_NO":999,"REV_AT_EPOCH":21245,"BSTAR":0.00021916,"MEAN_MOTION_DOT":9.7e-7,"MEAN_MOTION_DDOT":0},{"OBJECT_NAME":"ONEWEB-0272","OBJECT_ID":"2021-060Z","EPOCH":"2025-11-22T09:43:36.369120","MEAN_MOTION":13.16593358,"ECCENTRICITY":0.0002058,"INCLINATION":87.9018,"RA_OF_ASC_NODE":269.9665,"ARG_OF_PERICENTER":84.6664,"MEAN_ANOMALY":275.4702,"EPHEMERIS_TYPE":0,"CLASSIFICATION_TYPE":"U","NORAD_CAT_ID":48990,"ELEMENT_SET_NO":999,"REV_AT_EPOCH":21240,"BSTAR":8.5409e-5,"MEAN_MOTION_DOT":4.6e-7,"MEAN_MOTION_DDOT":0}]
